[{"OBJECT_NAME":"FLOCK 4Q-11","OBJECT_ID":"2023-174T","EPOCH":"2026-03-09T22:58:16.261824","MEAN_MOTION":15.45173932,"ECCENTRICITY":0.00077811,"INCLINATION":97.3894,"RA_OF_ASC_NODE":155.5718,"ARG_OF_PERICENTER":154.8881,"MEAN_ANOMALY":205.2748,"EPHEMERIS_TYPE":0,"CLASSIFICATION_TYPE":"U","NORAD_CAT_ID":58273,"ELEMENT_SET_NO":999,"REV_AT_EPOCH":13024,"BSTAR":0.00060116033,"MEAN_MOTION_DOT":0.00028516,"MEAN_MOTION_DDOT":0},{"OBJECT_NAME":"OBJECT AU","OBJECT_ID":"2024-199AU","EPOCH":"2026-03-09T22:39:39.982464","MEAN_MOTION":15.41914594,"ECCENTRICITY":0.0013813,"INCLINATION":97.3147,"RA_OF_ASC_NODE":301.0833,"ARG_OF_PERICENTER":281.8371,"MEAN_ANOMALY":78.1327,"EPHEMERIS_TYPE":0,"CLASSIFICATION_TYPE":"U","NORAD_CAT_ID":61777,"ELEMENT_SET_NO":999,"REV_AT_EPOCH":11887,"BSTAR":0.00048321732,"MEAN_MOTION_DOT":0.00020549,"MEAN_MOTION_DDOT":0}]
